{
  "type": "FeatureCollection",
  "features": [
    {
      "type": "Feature",
      "properties": {
        "norad_id": 58647,
        "name": "TIANMU-1 13",
        "group": "weather",
        "lat": -12.826375463724004,
        "lon": 22.37219797607357,
        "alt_km": 499.99432518562935,
        "timestamp": "2025-12-27T07:26:24.864454+00:00",
        "meta_object_name": "TIANMU-1 13",
        "meta_object_id": "2023-205C",
        "meta_epoch": "2025-12-26T23:37:17.301792",
        "meta_mean_motion": 15.24704591,
        "meta_eccentricity": 0.00068353,
        "meta_inclination": 97.3617,
        "meta_ra_of_asc_node": 20.3652,
        "meta_arg_of_pericenter": 205.6292,
        "meta_mean_anomaly": 154.4608,
        "meta_ephemeris_type": 0,
        "meta_classification_type": "U",
        "meta_norad_cat_id": 58647,
        "meta_element_set_no": 999,
        "meta_rev_at_epoch": 11124,
        "meta_bstar": 0.00030493198,
        "meta_mean_motion_dot": 7.477e-05,
        "meta_mean_motion_ddot": 0,
        "tle_line1": "1 58647U 23205C   25360.98422803  .00007477  00000+0  30493-3 0  9990",
        "tle_line2": "2 58647  97.3617  20.3652 0006835 205.6292 154.4608 15.24704591111246"
      },
      "geometry": {
        "type": "Point",
        "coordinates": [
          22.37219797607357,
          -12.826375463724004
        ]
      }
    },
    {
      "type": "Feature",
      "properties": {
        "norad_id": 58648,
        "name": "TIANMU-1 14",
        "group": "weather",
        "lat": 75.27523125033287,
        "lon": -9.417907006290402,
        "alt_km": 488.118337054495,
        "timestamp": "2025-12-27T07:26:24.864470+00:00",
        "meta_object_name": "TIANMU-1 14",
        "meta_object_id": "2023-205D",
        "meta_epoch": "2025-12-26T23:13:36.713856",
        "meta_mean_motion": 15.24686387,
        "meta_eccentricity": 0.00074953,
        "meta_inclination": 97.3549,
        "meta_ra_of_asc_node": 19.6847,
        "meta_arg_of_pericenter": 211.8418,
        "meta_mean_anomaly": 148.2367,
        "meta_ephemeris_type": 0,
        "meta_classification_type": "U",
        "meta_norad_cat_id": 58648,
        "meta_element_set_no": 999,
        "meta_rev_at_epoch": 11124,
        "meta_bstar": 0.0002921212,
        "meta_mean_motion_dot": 7.157e-05,
        "meta_mean_motion_ddot": 0,
        "tle_line1": "1 58648U 23205D   25360.96778604  .00007157  00000+0  29212-3 0  9994",
        "tle_line2": "2 58648  97.3549  19.6847 0007495 211.8418 148.2367 15.24686387111245"
      },
      "geometry": {
        "type": "Point",
        "coordinates": [
          -9.417907006290402,
          75.27523125033287
        ]
      }
    },
    {
      "type": "Feature",
      "properties": {
        "norad_id": 58660,
        "name": "TIANMU-1 19",
        "group": "weather",
        "lat": 30.163182828269534,
        "lon": -63.32520567119999,
        "alt_km": 477.4910001314074,
        "timestamp": "2025-12-27T07:26:24.864486+00:00",
        "meta_object_name": "TIANMU-1 19",
        "meta_object_id": "2023-208A",
        "meta_epoch": "2025-12-26T22:55:48.969696",
        "meta_mean_motion": 15.28112761,
        "meta_eccentricity": 0.000492,
        "meta_inclination": 97.4384,
        "meta_ra_of_asc_node": 111.9663,
        "meta_arg_of_pericenter": 193.6334,
        "meta_mean_anomaly": 166.4773,
        "meta_ephemeris_type": 0,
        "meta_classification_type": "U",
        "meta_norad_cat_id": 58660,
        "meta_element_set_no": 999,
        "meta_rev_at_epoch": 11099,
        "meta_bstar": 0.00040306204,
        "meta_mean_motion_dot": 0.00010982,
        "meta_mean_motion_ddot": 0,
        "tle_line1": "1 58660U 23208A   25360.95542789  .00010982  00000+0  40306-3 0  9990",
        "tle_line2": "2 58660  97.4384 111.9663 0004920 193.6334 166.4773 15.28112761110991"
      },
      "geometry": {
        "type": "Point",
        "coordinates": [
          -63.32520567119999,
          30.163182828269534
        ]
      }
    },
    {
      "type": "Feature",
      "properties": {
        "norad_id": 58661,
        "name": "TIANMU-1 20",
        "group": "weather",
        "lat": -72.3033643670946,
        "lon": 136.93193151171803,
        "alt_km": 484.32842400556456,
        "timestamp": "2025-12-27T07:26:24.864502+00:00",
        "meta_object_name": "TIANMU-1 20",
        "meta_object_id": "2023-208B",
        "meta_epoch": "2025-12-26T22:20:27.751200",
        "meta_mean_motion": 15.29302593,
        "meta_eccentricity": 0.00069337,
        "meta_inclination": 97.4322,
        "meta_ra_of_asc_node": 112.4035,
        "meta_arg_of_pericenter": 207.8977,
        "meta_mean_anomaly": 152.1892,
        "meta_ephemeris_type": 0,
        "meta_classification_type": "U",
        "meta_norad_cat_id": 58661,
        "meta_element_set_no": 999,
        "meta_rev_at_epoch": 11106,
        "meta_bstar": 0.00040414208,
        "meta_mean_motion_dot": 0.00011425,
        "meta_mean_motion_ddot": 0,
        "tle_line1": "1 58661U 23208B   25360.93087675  .00011425  00000+0  40414-3 0  9990",
        "tle_line2": "2 58661  97.4322 112.4035 0006933 207.8977 152.1892 15.29302593111068"
      },
      "geometry": {
        "type": "Point",
        "coordinates": [
          136.93193151171803,
          -72.3033643670946
        ]
      }
    },
    {
      "type": "Feature",
      "properties": {
        "norad_id": 58662,
        "name": "TIANMU-1 21",
        "group": "weather",
        "lat": 62.43269133123601,
        "lon": 100.26617099055322,
        "alt_km": 467.48804018819646,
        "timestamp": "2025-12-27T07:26:24.864521+00:00",
        "meta_object_name": "TIANMU-1 21",
        "meta_object_id": "2023-208C",
        "meta_epoch": "2025-12-26T21:45:28.182816",
        "meta_mean_motion": 15.31859038,
        "meta_eccentricity": 0.00065536,
        "meta_inclination": 97.4371,
        "meta_ra_of_asc_node": 114.3515,
        "meta_arg_of_pericenter": 202.1922,
        "meta_mean_anomaly": 157.9037,
        "meta_ephemeris_type": 0,
        "meta_classification_type": "U",
        "meta_norad_cat_id": 58662,
        "meta_element_set_no": 999,
        "meta_rev_at_epoch": 11116,
        "meta_bstar": 0.00039628135,
        "meta_mean_motion_dot": 0.00012125,
        "meta_mean_motion_ddot": 0,
        "tle_line1": "1 58662U 23208C   25360.90657619  .00012125  00000+0  39628-3 0  9992",
        "tle_line2": "2 58662  97.4371 114.3515 0006553 202.1922 157.9037 15.31859038111162"
      },
      "geometry": {
        "type": "Point",
        "coordinates": [
          100.26617099055322,
          62.43269133123601
        ]
      }
    },
    {
      "type": "Feature",
      "properties": {
        "norad_id": 58663,
        "name": "TIANMU-1 22",
        "group": "weather",
        "lat": 42.166086135963084,
        "lon": -60.83243667139677,
        "alt_km": 478.39243989567603,
        "timestamp": "2025-12-27T07:26:24.864537+00:00",
        "meta_object_name": "TIANMU-1 22",
        "meta_object_id": "2023-208D",
        "meta_epoch": "2025-12-26T22:58:54.516288",
        "meta_mean_motion": 15.2784812,
        "meta_eccentricity": 0.00030778,
        "meta_inclination": 97.4379,
        "meta_ra_of_asc_node": 112.0209,
        "meta_arg_of_pericenter": 215.7812,
        "meta_mean_anomaly": 144.3221,
        "meta_ephemeris_type": 0,
        "meta_classification_type": "U",
        "meta_norad_cat_id": 58663,
        "meta_element_set_no": 999,
        "meta_rev_at_epoch": 11100,
        "meta_bstar": 0.00037365652,
        "meta_mean_motion_dot": 0.0001009,
        "meta_mean_motion_ddot": 0,
        "tle_line1": "1 58663U 23208D   25360.95757542  .00010090  00000+0  37366-3 0  9990",
        "tle_line2": "2 58663  97.4379 112.0209 0003077 215.7812 144.3221 15.27848120111005"
      },
      "geometry": {
        "type": "Point",
        "coordinates": [
          -60.83243667139677,
          42.166086135963084
        ]
      }
    },
    {
      "type": "Feature",
      "properties": {
        "norad_id": 58700,
        "name": "TIANMU-1 15",
        "group": "weather",
        "lat": 78.91786130225219,
        "lon": 44.73576190669807,
        "alt_km": 487.3631265851127,
        "timestamp": "2025-12-27T07:26:24.864555+00:00",
        "meta_object_name": "TIANMU-1 15",
        "meta_object_id": "2024-004A",
        "meta_epoch": "2025-12-26T23:08:04.955136",
        "meta_mean_motion": 15.2460002,
        "meta_eccentricity": 0.00061256,
        "meta_inclination": 97.4631,
        "meta_ra_of_asc_node": 182.3802,
        "meta_arg_of_pericenter": 229.7335,
        "meta_mean_anomaly": 130.3367,
        "meta_ephemeris_type": 0,
        "meta_classification_type": "U",
        "meta_norad_cat_id": 58700,
        "meta_element_set_no": 999,
        "meta_rev_at_epoch": 10951,
        "meta_bstar": 0.0003356495,
        "meta_mean_motion_dot": 8.21e-05,
        "meta_mean_motion_ddot": 0,
        "tle_line1": "1 58700U 24004A   25360.96394624  .00008210  00000+0  33565-3 0  9994",
        "tle_line2": "2 58700  97.4631 182.3802 0006125 229.7335 130.3367 15.24600020109510"
      },
      "geometry": {
        "type": "Point",
        "coordinates": [
          44.73576190669807,
          78.91786130225219
        ]
      }
    }
  ]
}